NORAD_CAT_ID,OBJECT_NAME,OBJECT_TYPE,EPOCH,MEAN_MOTION,ECCENTRICITY,INCLINATION,RA_OF_ASC_NODE,ARG_OF_PERICENTER,MEAN_ANOMALY,BSTAR,MEAN_MOTION_DOT,MEAN_MOTION_DDOT,TLE_LINE0,TLE_LINE1,TLE_LINE2,SEMIMAJOR_AXIS,PERIOD,APOGEE,PERIGEE,DECAYED
54811.0,STARLINK-5424,PAYLOAD,2024-07-07 09:16:37,15.08864624,0.0001361,53.2185,243.9248,91.3825,268.7323,0.00073686,0.00011466,0.0,0 STARLINK-5424,1 54811U 22175BF  24189.38654232  .00011466  00000-0  73686-3 0  9994,2 54811  53.2185 243.9248 0001361  91.3825 268.7323 15.08864624 88063,6917.805,95.436,540.612,538.729,0.0
54811.0,STARLINK-5424,PAYLOAD,2024-07-08 12:18:10,15.08861471,0.0001407,53.2173,238.8708,95.8177,264.2976,0.00079225,0.00012351,0.0,0 STARLINK-5424,1 54811U 22175BF  24190.51262466  .00012351  00000-0  79225-3 0  9994,2 54811  53.2173 238.8708 0001407  95.8177 264.2976 15.08861471 86075,6917.815,95.436,540.653,538.706,0.0
54811.0,STARLINK-5424,PAYLOAD,2024-07-08 20:15:05,15.08872504,0.000144,53.2176,237.3819,85.5751,274.5406,0.0008123,0.00012675,0.0,0 STARLINK-5424,1 54811U 22175BF  24190.84381762  .00012675  00000-0  81230-3 0  9999,2 54811  53.2176 237.3819 0001440  85.5751 274.5406 15.08872504 88282,6917.781,95.435,540.642,538.65,0.0
54811.0,STARLINK-5424,PAYLOAD,2024-07-09 12:08:57,15.08870063,0.0001496,53.2169,234.4079,73.4029,286.7128,0.0008141,0.00012703,0.0,0 STARLINK-5424,1 54811U 22175BF  24191.50621969  .00012703  00000-0  81410-3 0  9991,2 54811  53.2169 234.4079 0001496  73.4029 286.7128 15.08870063 86221,6917.788,95.436,540.688,538.619,0.0
54811.0,STARLINK-5424,PAYLOAD,2024-07-10 04:02:48,15.08865364,0.0001295,53.2158,231.4327,89.0147,271.0993,0.00080818,0.00012606,0.0,0 STARLINK-5424,1 54811U 22175BF  24192.16862153  .00012606  00000-0  80818-3 0  9999,2 54811  53.2158 231.4327 0001295  89.0147 271.0993 15.08865364 86329,6917.803,95.436,540.564,538.772,0.0
54811.0,STARLINK-5424,PAYLOAD,2024-07-10 11:59:45,15.0886355,0.0001255,53.2154,229.9483,86.9741,273.1394,0.00072768,0.00011319,0.0,0 STARLINK-5424,1 54811U 22175BF  24192.49982663  .00011319  00000-0  72768-3 0  9999,2 54811  53.2154 229.9483 0001255  86.9741 273.1394 15.08863550 86370,6917.808,95.436,540.542,538.805,0.0
54811.0,STARLINK-5424,PAYLOAD,2024-07-11 13:25:54,15.08875813,0.0001271,53.2155,225.189,91.8158,268.298,0.00081075,0.00012651,0.0,0 STARLINK-5424,1 54811U 22175BF  24193.55965451  .00012651  00000-0  81075-3 0  9994,2 54811  53.2155 225.1890 0001271  91.8158 268.2980 15.08875813 88694,6917.771,95.435,540.515,538.757,0.0
54811.0,STARLINK-5424,PAYLOAD,2024-07-11 19:47:26,15.08873944,0.0001246,53.2155,223.9993,92.0914,268.0221,0.00080107,0.00012496,0.0,0 STARLINK-5424,1 54811U 22175BF  24193.82461540  .00012496  00000-0  80107-3 0  9996,2 54811  53.2155 223.9993 0001246  92.0914 268.0221 15.08873944 86573,6917.777,95.435,540.504,538.78,0.0
54811.0,STARLINK-5424,PAYLOAD,2024-07-12 05:19:46,15.08859095,0.0001448,53.2168,222.216,100.8014,259.3141,0.0007846,0.00012227,0.0,0 STARLINK-5424,1 54811U 22175BF  24194.22206547  .00012227  00000-0  78460-3 0  9996,2 54811  53.2168 222.2160 0001448 100.8014 259.3141 15.08859095 86630,6917.822,95.436,540.689,538.685,0.0
54811.0,STARLINK-5424,PAYLOAD,2024-07-12 08:30:32,15.08860501,0.0001415,53.2165,221.6218,96.8159,263.2994,0.00077125,0.00012015,0.0,0 STARLINK-5424,1 54811U 22175BF  24194.35454576  .00012015  00000-0  77125-3 0  9999,2 54811  53.2165 221.6218 0001415  96.8159 263.2994 15.08860501 88818,6917.818,95.436,540.662,538.704,0.0
54811.0,STARLINK-5424,PAYLOAD,2024-07-13 05:10:33,15.08867813,0.0001526,53.2176,217.7554,103.1043,257.012,0.00073296,0.00011405,0.0,0 STARLINK-5424,1 54811U 22175BF  24195.21566405  .00011405  00000-0  73296-3 0  9997,2 54811  53.2176 217.7554 0001526 103.1043 257.0120 15.08867813 86785,6917.795,95.436,540.716,538.605,0.0
54811.0,STARLINK-5424,PAYLOAD,2024-07-13 08:21:19,15.08868136,0.0001414,53.2167,217.1615,95.8769,264.2385,0.00073595,0.00011453,0.0,0 STARLINK-5424,1 54811U 22175BF  24195.34814369  .00011453  00000-0  73595-3 0  9991,2 54811  53.2167 217.1615 0001414  95.8769 264.2385 15.08868136 88969,6917.794,95.436,540.638,538.681,0.0
54811.0,STARLINK-5424,PAYLOAD,2024-07-13 17:53:38,15.08872738,0.0001364,53.2163,215.3776,95.6155,264.4993,0.00070965,0.00011034,0.0,0 STARLINK-5424,1 54811U 22175BF  24195.74558152  .00011034  00000-0  70965-3 0  9993,2 54811  53.2163 215.3776 0001364  95.6155 264.4993 15.08872738 86861,6917.78,95.435,540.589,538.702,0.0
54811.0,STARLINK-5424,PAYLOAD,2024-07-14 05:01:20,15.08861966,0.0001537,53.2158,213.2942,110.37,249.7458,0.00077514,0.00012077,0.0,0 STARLINK-5424,1 54811U 22175BF  24196.20926592  .00012077  00000-0  77514-3 0  9997,2 54811  53.2158 213.2942 0001537 110.3700 249.7458 15.08861966 86931,6917.813,95.436,540.742,538.615,0.0
54811.0,STARLINK-5424,PAYLOAD,2024-07-14 08:12:07,15.08861835,0.0001374,53.2164,212.7007,94.7436,265.3713,0.00073514,0.00011438,0.0,0 STARLINK-5424,1 54811U 22175BF  24196.34174878  .00011438  00000-0  73514-3 0  9990,2 54811  53.2164 212.7007 0001374  94.7436 265.3713 15.08861835 89110,6917.814,95.436,540.629,538.728,0.0
54811.0,STARLINK-5424,PAYLOAD,2024-07-14 17:44:25,15.08864951,0.0001387,53.2166,210.9172,95.5036,264.6115,0.00076064,0.00011847,0.0,0 STARLINK-5424,1 54811U 22175BF  24196.73918748  .00011847  00000-0  76064-3 0  9992,2 54811  53.2166 210.9172 0001387  95.5036 264.6115 15.08864951 87011,6917.804,95.436,540.629,538.71,0.0
54811.0,STARLINK-5424,PAYLOAD,2024-07-15 04:52:07,15.0886459,0.0001528,53.2168,208.8375,107.8265,252.2894,0.00079597,0.00012411,0.0,0 STARLINK-5424,1 54811U 22175BF  24197.20286694  .00012411  00000-0  79597-3 0  9995,2 54811  53.2168 208.8375 0001528 107.8265 252.2894 15.08864590 87085,6917.805,95.436,540.727,538.613,0.0
54811.0,STARLINK-5424,PAYLOAD,2024-07-15 11:13:40,15.08867849,0.000145,53.2167,207.6462,96.6282,263.4875,0.00076391,0.000119,0.0,0 STARLINK-5424,1 54811U 22175BF  24197.46782705  .00011900  00000-0  76391-3 0  9998,2 54811  53.2167 207.6462 0001450  96.6282 263.4875 15.08867849 89283,6917.795,95.436,540.663,538.657,0.0
54811.0,STARLINK-5424,PAYLOAD,2024-07-15 17:35:12,15.0887448,0.0001344,53.2161,206.4554,93.6683,266.4463,0.00069811,0.0001085,0.0,0 STARLINK-5424,1 54811U 22175BF  24197.73278466  .00010850  00000-0  69811-3 0  9994,2 54811  53.2161 206.4554 0001344  93.6683 266.4463 15.08874480 87160,6917.775,95.435,540.57,538.71,0.0
54811.0,STARLINK-5424,PAYLOAD,2024-07-16 04:42:55,15.08861799,0.0001373,53.2166,204.3741,93.4935,266.6214,0.00074778,0.0001164,0.0,0 STARLINK-5424,1 54811U 22175BF  24198.19647214  .00011640  00000-0  74778-3 0  9992,2 54811  53.2166 204.3741 0001373  93.4935 266.6214 15.08861799 87233,6917.814,95.436,540.629,538.729,0.0
54811.0,STARLINK-5424,PAYLOAD,2024-07-16 07:53:41,15.08863118,0.0001395,53.2165,203.7797,94.3445,265.7706,0.00077691,0.00012106,0.0,0 STARLINK-5424,1 54811U 22175BF  24198.32895072  .00012106  00000-0  77691-3 0  9999,2 54811  53.2165 203.7797 0001395  94.3445 265.7706 15.08863118 89411,6917.81,95.436,540.64,538.71,0.0
54811.0,STARLINK-5424,PAYLOAD,2024-07-17 04:33:41,15.08868855,0.0001391,53.2166,199.9136,89.7009,270.4142,0.00078019,0.0001216,0.0,0 STARLINK-5424,1 54811U 22175BF  24199.19006876  .00012160  00000-0  78019-3 0  9996,2 54811  53.2166 199.9136 0001391  89.7009 270.4142 15.08868855 87389,6917.792,95.436,540.619,538.695,0.0
54811.0,STARLINK-5424,PAYLOAD,2024-07-17 09:19:51,15.08865726,0.0001362,53.2164,199.0215,86.9794,273.1354,0.00076772,0.0001196,0.0,0 STARLINK-5424,1 54811U 22175BF  24199.38879107  .00011960  00000-0  76772-3 0  9993,2 54811  53.2164 199.0215 0001362  86.9794 273.1354 15.08865726 87417,6917.802,95.436,540.609,538.725,0.0
54811.0,STARLINK-5424,PAYLOAD,2024-07-18 05:59:52,15.08867993,0.0001348,53.216,195.154,88.0719,272.0428,0.00077163,0.00012023,0.0,0 STARLINK-5424,1 54811U 22175BF  24200.24991011  .00012023  00000-0  77163-3 0  9996,2 54811  53.2160 195.1540 0001348  88.0719 272.0428 15.08867993 87547,6917.795,95.436,540.592,538.727,0.0
54811.0,STARLINK-5424,PAYLOAD,2024-07-18 17:07:33,15.08870814,0.0001318,53.2161,193.0735,87.5237,272.5906,0.00078983,0.00012315,0.0,0 STARLINK-5424,1 54811U 22175BF  24200.71358773  .00012315  00000-0  78983-3 0  9995,2 54811  53.2161 193.0735 0001318  87.5237 272.5906 15.08870814 87617,6917.786,95.436,540.563,538.739,0.0
54811.0,STARLINK-5424,PAYLOAD,2024-07-19 04:15:16,15.08865497,0.0001645,53.2175,190.9906,101.0022,259.1156,0.00083462,0.00013029,0.0,0 STARLINK-5424,1 54811U 22175BF  24201.17726874  .00013029  00000-0  83462-3 0  9998,2 54811  53.2175 190.9906 0001645 101.0022 259.1156 15.08865497 87681,6917.802,95.436,540.805,538.529,0.0
54811.0,STARLINK-5424,PAYLOAD,2024-07-19 09:01:25,15.08868842,0.0001577,53.2174,190.0995,97.543,262.5741,0.00081245,0.00012676,0.0,0 STARLINK-5424,1 54811U 22175BF  24201.37598774  .00012676  00000-0  81245-3 0  9990,2 54811  53.2174 190.0995 0001577  97.5430 262.5741 15.08868842 89873,6917.792,95.436,540.748,538.566,0.0
54811.0,STARLINK-5424,PAYLOAD,2024-07-19 16:58:20,15.08870444,0.0001548,53.2172,188.6119,98.2948,261.822,0.00078445,0.00012229,0.0,0 STARLINK-5424,1 54811U 22175BF  24201.70718712  .00012229  00000-0  78445-3 0  9995,2 54811  53.2172 188.6119 0001548  98.2948 261.8220 15.08870444 87763,6917.787,95.436,540.723,538.581,0.0
54811.0,STARLINK-5424,PAYLOAD,2024-07-20 05:41:26,15.08866073,0.000162,53.2174,186.233,102.4126,257.7047,0.00080184,0.00012505,0.0,0 STARLINK-5424,1 54811U 22175BF  24202.23710800  .00012505  00000-0  80184-3 0  9994,2 54811  53.2174 186.2330 0001620 102.4126 257.7047 15.08866073 87844,6917.801,95.436,540.786,538.545,0.0
54811.0,STARLINK-5424,PAYLOAD,2024-07-20 08:52:12,15.08869128,0.0001605,53.2173,185.6384,101.6533,258.4639,0.0007992,0.00012464,0.0,0 STARLINK-5424,1 54811U 22175BF  24202.36958622  .00012464  00000-0  79920-3 0  9994,2 54811  53.2173 185.6384 0001605 101.6533 258.4639 15.08869128 90024,6917.791,95.436,540.767,538.546,0.0
